[{"OBJECT_NAME":"HONGHU 2","OBJECT_ID":"2023-193C","EPOCH":"2026-03-09T23:21:07.139520","MEAN_MOTION":15.21543878,"ECCENTRICITY":0.00399876,"INCLINATION":97.2779,"RA_OF_ASC_NODE":62.3901,"ARG_OF_PERICENTER":264.1736,"MEAN_ANOMALY":95.4941,"EPHEMERIS_TYPE":0,"CLASSIFICATION_TYPE":"U","NORAD_CAT_ID":58555,"ELEMENT_SET_NO":999,"REV_AT_EPOCH":8691,"BSTAR":0.0061775359,"MEAN_MOTION_DOT":0.00144707,"MEAN_MOTION_DDOT":0},{"OBJECT_NAME":"STARLINK-35711","OBJECT_ID":"2025-270H","EPOCH":"2026-03-09T00:14:44.671200","MEAN_MOTION":15.27572787,"ECCENTRICITY":6.019e-5,"INCLINATION":42.9996,"RA_OF_ASC_NODE":59.8664,"ARG_OF_PERICENTER":229.3637,"MEAN_ANOMALY":130.7162,"EPHEMERIS_TYPE":0,"CLASSIFICATION_TYPE":"U","NORAD_CAT_ID":66595,"ELEMENT_SET_NO":999,"REV_AT_EPOCH":1771,"BSTAR":0.0011083029,"MEAN_MOTION_DOT":0.00030355,"MEAN_MOTION_DDOT":0}]
